{
  "type": "FeatureCollection",
  "features": [
    {
      "type": "Feature",
      "properties": {
        "norad_id": 42988,
        "name": "SKYSAT-C10",
        "group": "resource",
        "lat": 48.35129662261038,
        "lon": 101.30354302825526,
        "alt_km": 465.39372857351555,
        "timestamp": "2025-12-04T21:36:15.531885+00:00",
        "meta_object_name": "SKYSAT-C10",
        "meta_object_id": "2017-068B",
        "meta_epoch": "2025-12-04T07:16:54.384672",
        "meta_mean_motion": 15.31835554,
        "meta_eccentricity": 0.00069709,
        "meta_inclination": 97.4228,
        "meta_ra_of_asc_node": 109.1352,
        "meta_arg_of_pericenter": 134.0692,
        "meta_mean_anomaly": 226.1124,
        "meta_ephemeris_type": 0,
        "meta_classification_type": "U",
        "meta_norad_cat_id": 42988,
        "meta_element_set_no": 999,
        "meta_rev_at_epoch": 45250,
        "meta_bstar": 0.00074085265,
        "meta_mean_motion_dot": 0.00022753,
        "meta_mean_motion_ddot": 0,
        "tle_line1": "1 42988U 17068B   25338.30340723  .00022753  00000+0  74085-3 0  9991",
        "tle_line2": "2 42988  97.4228 109.1352 0006970 134.0692 226.1124 15.31835554452507"
      },
      "geometry": {
        "type": "Point",
        "coordinates": [
          101.30354302825526,
          48.35129662261038
        ]
      }
    },
    {
      "type": "Feature",
      "properties": {
        "norad_id": 42989,
        "name": "SKYSAT-C9",
        "group": "resource",
        "lat": 34.69420366134325,
        "lon": -65.73037669920569,
        "alt_km": 450.31895660459486,
        "timestamp": "2025-12-04T21:36:15.531896+00:00",
        "meta_object_name": "SKYSAT-C9",
        "meta_object_id": "2017-068C",
        "meta_epoch": "2025-12-04T08:27:57.708864",
        "meta_mean_motion": 15.35718179,
        "meta_eccentricity": 0.00106538,
        "meta_inclination": 97.4185,
        "meta_ra_of_asc_node": 108.543,
        "meta_arg_of_pericenter": 115.0051,
        "meta_mean_anomaly": 245.23,
        "meta_ephemeris_type": 0,
        "meta_classification_type": "U",
        "meta_norad_cat_id": 42989,
        "meta_element_set_no": 999,
        "meta_rev_at_epoch": 45279,
        "meta_bstar": 0.00078250512,
        "meta_mean_motion_dot": 0.00027214,
        "meta_mean_motion_ddot": 0,
        "tle_line1": "1 42989U 17068C   25338.35275126  .00027214  00000+0  78251-3 0  9997",
        "tle_line2": "2 42989  97.4185 108.5430 0010653 115.0051 245.2300 15.35718179452797"
      },
      "geometry": {
        "type": "Point",
        "coordinates": [
          -65.73037669920569,
          34.69420366134325
        ]
      }
    },
    {
      "type": "Feature",
      "properties": {
        "norad_id": 42990,
        "name": "SKYSAT-C8",
        "group": "resource",
        "lat": -23.138398439596298,
        "lon": -74.32766225976846,
        "alt_km": 474.846726353544,
        "timestamp": "2025-12-04T21:36:15.531906+00:00",
        "meta_object_name": "SKYSAT-C8",
        "meta_object_id": "2017-068D",
        "meta_epoch": "2025-12-04T16:01:10.335936",
        "meta_mean_motion": 15.32647,
        "meta_eccentricity": 0.00020706,
        "meta_inclination": 97.4278,
        "meta_ra_of_asc_node": 108.6347,
        "meta_arg_of_pericenter": 17.0554,
        "meta_mean_anomaly": 343.0757,
        "meta_ephemeris_type": 0,
        "meta_classification_type": "U",
        "meta_norad_cat_id": 42990,
        "meta_element_set_no": 999,
        "meta_rev_at_epoch": 45247,
        "meta_bstar": 0.00070665107,
        "meta_mean_motion_dot": 0.0002224,
        "meta_mean_motion_ddot": 0,
        "tle_line1": "1 42990U 17068D   25338.66748074  .00022240  00000+0  70665-3 0  9995",
        "tle_line2": "2 42990  97.4278 108.6347 0002070  17.0554 343.0757 15.32647000452472"
      },
      "geometry": {
        "type": "Point",
        "coordinates": [
          -74.32766225976846,
          -23.138398439596298
        ]
      }
    },
    {
      "type": "Feature",
      "properties": {
        "norad_id": 42991,
        "name": "SKYSAT-C7",
        "group": "resource",
        "lat": 73.58967429122552,
        "lon": 83.61885601170795,
        "alt_km": 457.2450120166641,
        "timestamp": "2025-12-04T21:36:15.531917+00:00",
        "meta_object_name": "SKYSAT-C7",
        "meta_object_id": "2017-068E",
        "meta_epoch": "2025-12-04T15:00:25.075872",
        "meta_mean_motion": 15.32054452,
        "meta_eccentricity": 0.0007895,
        "meta_inclination": 97.4285,
        "meta_ra_of_asc_node": 109.64,
        "meta_arg_of_pericenter": 82.4418,
        "meta_mean_anomaly": 277.7721,
        "meta_ephemeris_type": 0,
        "meta_classification_type": "U",
        "meta_norad_cat_id": 42991,
        "meta_element_set_no": 999,
        "meta_rev_at_epoch": 45253,
        "meta_bstar": 0.00072751935,
        "meta_mean_motion_dot": 0.00022499,
        "meta_mean_motion_ddot": 0,
        "tle_line1": "1 42991U 17068E   25338.62529023  .00022499  00000+0  72752-3 0  9998",
        "tle_line2": "2 42991  97.4285 109.6400 0007895  82.4418 277.7721 15.32054452452531"
      },
      "geometry": {
        "type": "Point",
        "coordinates": [
          83.61885601170795,
          73.58967429122552
        ]
      }
    },
    {
      "type": "Feature",
      "properties": {
        "norad_id": 42992,
        "name": "SKYSAT-C6",
        "group": "resource",
        "lat": -35.51880404212702,
        "lon": -74.9856246977679,
        "alt_km": 479.7503395402191,
        "timestamp": "2025-12-04T21:36:15.531927+00:00",
        "meta_object_name": "SKYSAT-C6",
        "meta_object_id": "2017-068F",
        "meta_epoch": "2025-12-04T14:23:30.752736",
        "meta_mean_motion": 15.31229154,
        "meta_eccentricity": 0.00051643,
        "meta_inclination": 97.4319,
        "meta_ra_of_asc_node": 110.0595,
        "meta_arg_of_pericenter": 105.6508,
        "meta_mean_anomaly": 254.5303,
        "meta_ephemeris_type": 0,
        "meta_classification_type": "U",
        "meta_norad_cat_id": 42992,
        "meta_element_set_no": 999,
        "meta_rev_at_epoch": 45251,
        "meta_bstar": 0.00072089409,
        "meta_mean_motion_dot": 0.00021714,
        "meta_mean_motion_ddot": 0,
        "tle_line1": "1 42992U 17068F   25338.59966149  .00021714  00000+0  72089-3 0  9991",
        "tle_line2": "2 42992  97.4319 110.0595 0005164 105.6508 254.5303 15.31229154452515"
      },
      "geometry": {
        "type": "Point",
        "coordinates": [
          -74.9856246977679,
          -35.51880404212702
        ]
      }
    },
    {
      "type": "Feature",
      "properties": {
        "norad_id": 43111,
        "name": "CARTOSAT-2F",
        "group": "resource",
        "lat": -54.452253487039734,
        "lon": 47.19395326680056,
        "alt_km": 515.1466089302776,
        "timestamp": "2025-12-04T21:36:15.531937+00:00",
        "meta_object_name": "CARTOSAT-2F",
        "meta_object_id": "2018-004A",
        "meta_epoch": "2025-12-04T09:12:06.617952",
        "meta_mean_motion": 15.19377761,
        "meta_eccentricity": 0.00011346,
        "meta_inclination": 97.434,
        "meta_ra_of_asc_node": 36.1563,
        "meta_arg_of_pericenter": 188.6397,
        "meta_mean_anomaly": 171.4819,
        "meta_ephemeris_type": 0,
        "meta_classification_type": "U",
        "meta_norad_cat_id": 43111,
        "meta_element_set_no": 999,
        "meta_rev_at_epoch": 43775,
        "meta_bstar": 8.8571519e-05,
        "meta_mean_motion_dot": 1.806e-05,
        "meta_mean_motion_ddot": 0,
        "tle_line1": "1 43111U 18004A   25338.38340993  .00001806  00000+0  88572-4 0  9991",
        "tle_line2": "2 43111  97.4340  36.1563 0001134 188.6397 171.4819 15.19377761437758"
      },
      "geometry": {
        "type": "Point",
        "coordinates": [
          47.19395326680056,
          -54.452253487039734
        ]
      }
    },
    {
      "type": "Feature",
      "properties": {
        "norad_id": 43259,
        "name": "GAOFEN-1 02",
        "group": "resource",
        "lat": -15.282052422347931,
        "lon": -145.53894092750903,
        "alt_km": 644.7588803677454,
        "timestamp": "2025-12-04T21:36:15.531947+00:00",
        "meta_object_name": "GAOFEN-1 02",
        "meta_object_id": "2018-031A",
        "meta_epoch": "2025-12-04T15:50:34.024128",
        "meta_mean_motion": 14.76454776,
        "meta_eccentricity": 0.00013283,
        "meta_inclination": 98.0818,
        "meta_ra_of_asc_node": 36.4459,
        "meta_arg_of_pericenter": 250.6323,
        "meta_mean_anomaly": 109.4743,
        "meta_ephemeris_type": 0,
        "meta_classification_type": "U",
        "meta_norad_cat_id": 43259,
        "meta_element_set_no": 999,
        "meta_rev_at_epoch": 41399,
        "meta_bstar": 0.00028054847,
        "meta_mean_motion_dot": 1.9e-05,
        "meta_mean_motion_ddot": 0,
        "tle_line1": "1 43259U 18031A   25338.66011602  .00001900  00000+0  28055-3 0  9991",
        "tle_line2": "2 43259  98.0818  36.4459 0001328 250.6323 109.4743 14.76454776413990"
      },
      "geometry": {
        "type": "Point",
        "coordinates": [
          -145.53894092750903,
          -15.282052422347931
        ]
      }
    }
  ]
}